NORAD_CAT_ID,OBJECT_NAME,OBJECT_TYPE,EPOCH,MEAN_MOTION,ECCENTRICITY,INCLINATION,RA_OF_ASC_NODE,ARG_OF_PERICENTER,MEAN_ANOMALY,BSTAR,MEAN_MOTION_DOT,MEAN_MOTION_DDOT,TLE_LINE0,TLE_LINE1,TLE_LINE2,SEMIMAJOR_AXIS,PERIOD,APOGEE,PERIGEE,DECAYED
49453.0,STARLINK-3129,PAYLOAD,2023-08-21 22:35:41,15.08834778,0.0001749,53.2177,77.4997,74.9719,285.1466,1.0091e-05,-1.28e-06,0.0,0 STARLINK-3129,1 49453U 21104AX  23233.94145500 -.00000128  00000-0  10091-4 0  9991,2 49453  53.2177  77.4997 0001749  74.9719 285.1466 15.08834778 99330,6917.896,95.438,540.971,538.551,0.0
49453.0,STARLINK-3129,PAYLOAD,2023-08-23 12:44:56,15.08838586,0.0001537,53.2168,70.3637,79.1354,280.9811,0.00012808,1.751e-05,0.0,0 STARLINK-3129,1 49453U 21104AX  23235.53121406  .00001751  00000-0  12808-3 0  9996,2 49453  53.2168  70.3637 0001537  79.1354 280.9811 15.08838586 99574,6917.885,95.438,540.813,538.686,0.0
49453.0,STARLINK-3129,PAYLOAD,2023-08-24 12:35:43,15.08826535,0.0001307,53.2174,65.9038,90.1371,269.9771,0.0003179,4.773e-05,0.0,0 STARLINK-3129,1 49453U 21104AX  23236.52481243  .00004773  00000-0  31790-3 0  9992,2 49453  53.2174  65.9038 0001307  90.1371 269.9771 15.08826535 99723,6917.922,95.438,540.691,538.882,0.0
49453.0,STARLINK-3129,PAYLOAD,2023-08-24 20:32:39,15.08842881,0.0001359,53.2173,64.4173,89.8557,270.2591,0.00016807,2.388e-05,0.0,0 STARLINK-3129,1 49453U 21104AX  23236.85600997  .00002388  00000-0  16807-3 0  9999,2 49453  53.2173  64.4173 0001359  89.8557 270.2591 15.08842881 98708,6917.872,95.437,540.677,538.796,0.0
49453.0,STARLINK-3129,PAYLOAD,2023-08-25 18:48:03,15.08842346,0.0001348,53.2174,60.2545,80.394,279.7205,2.4643e-05,1.04e-06,0.0,0 STARLINK-3129,1 49453U 21104AX  23237.78337274  .00000104  00000-0  24643-4 0  9999,2 49453  53.2174  60.2545 0001348  80.3940 279.7205 15.08842346 99912,6917.873,95.437,540.671,538.806,0.0
49453.0,STARLINK-3129,PAYLOAD,2023-08-25 21:58:49,15.08846252,0.0001278,53.2173,59.6591,85.5951,274.5187,5.0263e-05,5.12e-06,0.0,0 STARLINK-3129,1 49453U 21104AX  23237.91584875  .00000512  00000-0  50263-4 0  9995,2 49453  53.2173  59.6591 0001278  85.5951 274.5187 15.08846252 98860,6917.861,95.437,540.61,538.842,0.0
49453.0,STARLINK-3129,PAYLOAD,2023-08-26 12:17:18,15.08845449,0.0001286,53.2176,56.9826,98.9208,261.1929,-0.0001211,-2.215e-05,0.0,0 STARLINK-3129,1 49453U 21104AX  23238.51201422 -.00002215  00000-0 -12110-3 0  9998,2 49453  53.2176  56.9826 0001286  98.9208 261.1929 15.08845449 98959,6917.864,95.437,540.618,538.839,0.0
49453.0,STARLINK-3129,PAYLOAD,2023-08-26 18:38:50,15.08841526,0.0001321,53.2179,55.7931,96.0686,264.0456,3.1572e-05,2.15e-06,0.0,0 STARLINK-3129,1 49453U 21104AX  23238.77697174  .00000215  00000-0  31572-4 0  9999,2 49453  53.2179  55.7931 0001321  96.0686 264.0456 15.08841526 98998,6917.876,95.437,540.655,538.827,0.0
49453.0,STARLINK-3129,PAYLOAD,2023-08-27 16:54:14,15.08839294,0.0001302,53.2186,51.6298,102.5224,257.5914,4.0784e-05,3.61e-06,0.0,0 STARLINK-3129,1 49453U 21104AX  23239.70433412  .00000361  00000-0  40784-4 0  9993,2 49453  53.2186  51.6298 0001302 102.5224 257.5914 15.08839294100200,6917.883,95.438,540.648,538.847,0.0
49453.0,STARLINK-3129,PAYLOAD,2023-08-28 04:01:55,15.08845566,0.0001329,53.219,49.5477,99.2758,260.8384,7.3316e-05,8.79e-06,0.0,0 STARLINK-3129,1 49453U 21104AX  23240.16800883  .00000879  00000-0  73316-4 0  9996,2 49453  53.2190  49.5477 0001329  99.2758 260.8384 15.08845566100277,6917.863,95.437,540.648,538.809,0.0
49453.0,STARLINK-3129,PAYLOAD,2023-08-28 18:20:24,15.08841706,0.0001343,53.2193,46.8729,92.768,267.3466,7.9685e-05,9.81e-06,0.0,0 STARLINK-3129,1 49453U 21104AX  23240.76417423  .00000981  00000-0  79685-4 0  9995,2 49453  53.2193  46.8729 0001343  92.7680 267.3466 15.08841706100363,6917.875,95.437,540.669,538.811,0.0
49453.0,STARLINK-3129,PAYLOAD,2023-08-29 03:52:44,15.08834194,0.0001474,53.2193,45.0866,90.1434,269.9727,4.9568e-05,5.01e-06,0.0,0 STARLINK-3129,1 49453U 21104AX  23241.16162060  .00000501  00000-0  49568-4 0  9999,2 49453  53.2193  45.0866 0001474  90.1434 269.9727 15.08834194100428,6917.898,95.438,540.783,538.743,0.0
49453.0,STARLINK-3129,PAYLOAD,2023-08-29 18:11:11,15.08843111,0.0001312,53.2194,42.4112,88.5209,271.5934,7.8711e-05,9.65e-06,0.0,0 STARLINK-3129,1 49453U 21104AX  23241.75777616  .00000965  00000-0  78711-4 0  9999,2 49453  53.2194  42.4112 0001312  88.5209 271.5934 15.08843111 99443,6917.871,95.437,540.644,538.828,0.0
49453.0,STARLINK-3129,PAYLOAD,2023-08-29 22:57:20,15.08847806,0.0001291,53.2191,41.5186,90.6021,269.5119,0.00012051,1.631e-05,0.0,0 STARLINK-3129,1 49453U 21104AX  23241.95649142  .00001631  00000-0  12051-3 0  9998,2 49453  53.2191  41.5186 0001291  90.6021 269.5119 15.08847806100544,6917.857,95.437,540.615,538.828,0.0
49453.0,STARLINK-3129,PAYLOAD,2023-08-30 16:26:36,15.08840042,0.0001149,53.2189,38.2486,87.6765,272.4358,4.3763e-05,4.09e-06,0.0,0 STARLINK-3129,1 49453U 21104AX  23242.68513933  .00000409  00000-0  43763-4 0  9994,2 49453  53.2189  38.2486 0001149  87.6765 272.4358 15.08840042100655,6917.88,95.438,540.54,538.95,0.0
49453.0,STARLINK-3129,PAYLOAD,2023-08-30 22:48:08,15.08846851,0.0001389,53.2184,37.0583,86.8591,273.256,9.6577e-05,1.25e-05,0.0,0 STARLINK-3129,1 49453U 21104AX  23242.95009381  .00001250  00000-0  96577-4 0  9997,2 49453  53.2184  37.0583 0001389  86.8591 273.2560 15.08846851100691,6917.859,95.437,540.685,538.764,0.0
49453.0,STARLINK-3129,PAYLOAD,2023-08-31 11:31:14,15.08824815,0.0001133,53.2195,34.6799,92.6836,267.4286,-3.2298e-05,-8.02e-06,0.0,0 STARLINK-3129,1 49453U 21104AX  23243.48003208 -.00000802  00000-0 -32298-4 0  9992,2 49453  53.2195  34.6799 0001133  92.6836 267.4286 15.08824815100774,6917.927,95.439,540.576,539.008,0.0
49453.0,STARLINK-3129,PAYLOAD,2023-09-01 09:46:37,15.08839755,8.46e-05,53.2195,30.5171,87.4805,272.6284,0.00014047,1.949e-05,0.0,0 STARLINK-3129,1 49453U 21104AX  23244.40738279  .00001949  00000-0  14047-3 0  9990,2 49453  53.2195  30.5171 0000846  87.4805 272.6284 15.08839755100912,6917.881,95.438,540.331,539.161,0.0
49453.0,STARLINK-3129,PAYLOAD,2023-09-01 16:08:10,15.08850351,0.0001234,53.2166,29.3283,80.3093,279.8038,0.00031262,4.692e-05,0.0,0 STARLINK-3129,1 49453U 21104AX  23244.67233919  .00004692  00000-0  31262-3 0  9996,2 49453  53.2166  29.3283 0001234  80.3093 279.8038 15.08850351100958,6917.849,95.437,540.567,538.86,0.0
49453.0,STARLINK-3129,PAYLOAD,2023-09-02 09:37:24,15.08843369,0.0001714,53.2159,26.0568,88.5431,271.5758,0.00029451,4.403e-05,0.0,0 STARLINK-3129,1 49453U 21104AX  23245.40098319  .00004403  00000-0  29451-3 0  9998,2 49453  53.2159  26.0568 0001714  88.5431 271.5758 15.08843369101061,6917.87,95.437,540.921,538.549,0.0
49453.0,STARLINK-3129,PAYLOAD,2023-09-02 12:48:11,15.08842758,0.0001557,53.217,25.462,91.6467,268.4704,0.00020382,2.958e-05,0.0,0 STARLINK-3129,1 49453U 21104AX  23245.53346285  .00002958  00000-0  20382-3 0  9997,2 49453  53.2170  25.4620 0001557  91.6467 268.4704 15.08842758100016,6917.872,95.437,540.814,538.66,0.0
49453.0,STARLINK-3129,PAYLOAD,2023-09-02 19:09:43,15.08856878,0.0001068,53.2183,24.2718,96.7975,263.3138,0.00039966,6.081e-05,0.0,0 STARLINK-3129,1 49453U 21104AX  23245.79841655  .00006081  00000-0  39966-3 0  9995,2 49453  53.2183  24.2718 0001068  96.7975 263.3138 15.08856878100059,6917.829,95.436,540.433,538.955,0.0
49453.0,STARLINK-3129,PAYLOAD,2023-09-03 09:28:11,15.0884996,0.0001324,53.2187,21.5961,94.496,265.6184,0.00020429,2.966e-05,0.0,0 STARLINK-3129,1 49453U 21104AX  23246.39457715  .00002966  00000-0  20429-3 0  9994,2 49453  53.2187  21.5961 0001324  94.4960 265.6184 15.08849960101216,6917.85,95.437,540.631,538.799,0.0
49453.0,STARLINK-3129,PAYLOAD,2023-09-04 09:18:58,15.08839815,0.0001193,53.2183,17.1356,95.2776,264.8352,0.00011411,1.529e-05,0.0,0 STARLINK-3129,1 49453U 21104AX  23247.38818091  .00001529  00000-0  11411-3 0  9997,2 49453  53.2183  17.1356 0001193  95.2776 264.8352 15.08839815101361,6917.881,95.438,540.571,538.921,0.0
49453.0,STARLINK-3129,PAYLOAD,2023-09-05 09:09:46,15.08837485,0.0001325,53.2188,12.6766,99.6229,260.4913,6.17e-05,6.94e-06,0.0,0 STARLINK-3129,1 49453U 21104AX  23248.38178404  .00000694  00000-0  61700-4 0  9994,2 49453  53.2188  12.6766 0001325  99.6229 260.4913 15.08837485100443,6917.888,95.438,540.67,538.836,0.0
49453.0,STARLINK-3129,PAYLOAD,2023-09-06 09:00:33,15.08841287,0.0001289,53.2186,8.2164,99.2936,260.8202,0.00020087,2.911e-05,0.0,0 STARLINK-3129,1 49453U 21104AX  23249.37538565  .00002911  00000-0  20087-3 0  9998,2 49453  53.2186   8.2164 0001289  99.2936 260.8202 15.08841287100590,6917.876,95.437,540.633,538.85,0.0
49453.0,STARLINK-3129,PAYLOAD,2023-09-07 08:51:20,15.08845665,0.0001224,53.2172,3.7553,94.9357,265.1775,0.00021486,3.134e-05,0.0,0 STARLINK-3129,1 49453U 21104AX  23250.36898420  .00003134  00000-0  21486-3 0  9990,2 49453  53.2172   3.7553 0001224  94.9357 265.1775 15.08845665101818,6917.863,95.437,540.575,538.881,0.0
49453.0,STARLINK-3129,PAYLOAD,2023-09-07 16:48:15,15.08847931,0.0001149,53.2166,2.268,89.6499,270.4624,0.00021428,3.125e-05,0.0,0 STARLINK-3129,1 49453U 21104AX  23250.70018239  .00003125  00000-0  21428-3 0  9996,2 49453  53.2166   2.2680 0001149  89.6499 270.4624 15.08847931100796,6917.856,95.437,540.516,538.926,0.0
49453.0,STARLINK-3129,PAYLOAD,2023-09-08 00:45:11,15.08837555,0.000158,53.2145,0.779,92.7179,267.3993,0.00018674,2.685e-05,0.0,0 STARLINK-3129,1 49453U 21104AX  23251.03138813  .00002685  00000-0  18674-3 0  9993,2 49453  53.2145   0.7790 0001580  92.7179 267.3993 15.08837555101917,6917.888,95.438,540.846,538.66,0.0
49453.0,STARLINK-3129,PAYLOAD,2023-09-08 13:28:16,15.08842501,0.000147,53.2176,358.402,85.8677,274.2483,9.4586e-05,1.218e-05,0.0,0 STARLINK-3129,1 49453U 21104AX  23251.56130650  .00001218  00000-0  94586-4 0  9990,2 49453  53.2176 358.4020 0001470  85.8677 274.2483 15.08842501100922,6917.873,95.437,540.755,538.721,0.0
